CCSDS_OMM_VERS = 2.0
CREATION_DATE  = 
ORIGINATOR     = 

OBJECT_NAME    = ISS (ZARYA)
OBJECT_ID      = 1998-067A
CENTER_NAME    = EARTH
REF_FRAME      = TEME
TIME_SYSTEM    = UTC
MEAN_ELEMENT_THEORY = SGP/SGP4

EPOCH          = 2026-01-17T20:28:31.536192
MEAN_MOTION    = 15.49362465
ECCENTRICITY   = .00078027
INCLINATION    = 51.6334
RA_OF_ASC_NODE = 323.6922
ARG_OF_PERICENTER = 29.9146
MEAN_ANOMALY   = 330.2287

EPHEMERIS_TYPE = 0
CLASSIFICATION_TYPE = U
NORAD_CAT_ID   = 25544
ELEMENT_SET_NO = 999
REV_AT_EPOCH   = 54845
BSTAR          = .24461794E-3
MEAN_MOTION_DOT = .13231E-3
MEAN_MOTION_DDOT = 0

CCSDS_OMM_VERS = 2.0
CREATION_DATE  = 
ORIGINATOR     = 

OBJECT_NAME    = CSS (TIANHE)
OBJECT_ID      = 2021-035A
CENTER_NAME    = EARTH
REF_FRAME      = TEME
TIME_SYSTEM    = UTC
MEAN_ELEMENT_THEORY = SGP/SGP4

EPOCH          = 2026-01-17T18:13:12.934272
MEAN_MOTION    = 15.60612084
ECCENTRICITY   = .00111739
INCLINATION    = 41.4657
RA_OF_ASC_NODE = 157.7848
ARG_OF_PERICENTER = 305.0077
MEAN_ANOMALY   = 54.9713

EPHEMERIS_TYPE = 0
CLASSIFICATION_TYPE = U
NORAD_CAT_ID   = 48274
ELEMENT_SET_NO = 999
REV_AT_EPOCH   = 26965
BSTAR          = .23895988E-3
MEAN_MOTION_DOT = .20114E-3
MEAN_MOTION_DDOT = 0

CCSDS_OMM_VERS = 2.0
CREATION_DATE  = 
ORIGINATOR     = 

OBJECT_NAME    = ISS (NAUKA)
OBJECT_ID      = 2021-066A
CENTER_NAME    = EARTH
REF_FRAME      = TEME
TIME_SYSTEM    = UTC
MEAN_ELEMENT_THEORY = SGP/SGP4

EPOCH          = 2026-01-17T20:28:31.536192
MEAN_MOTION    = 15.49362465
ECCENTRICITY   = .00078027
INCLINATION    = 51.6334
RA_OF_ASC_NODE = 323.6922
ARG_OF_PERICENTER = 29.9146
MEAN_ANOMALY   = 330.2287

EPHEMERIS_TYPE = 0
CLASSIFICATION_TYPE = U
NORAD_CAT_ID   = 49044
ELEMENT_SET_NO = 999
REV_AT_EPOCH   = 23044
BSTAR          = .24461794E-3
MEAN_MOTION_DOT = .13231E-3
MEAN_MOTION_DDOT = 0

CCSDS_OMM_VERS = 2.0
CREATION_DATE  = 
ORIGINATOR     = 

OBJECT_NAME    = FREGAT DEB
OBJECT_ID      = 2011-037PF
CENTER_NAME    = EARTH
REF_FRAME      = TEME
TIME_SYSTEM    = UTC
MEAN_ELEMENT_THEORY = SGP/SGP4

EPOCH          = 2026-01-15T05:48:15.363072
MEAN_MOTION    = 12.35792458
ECCENTRICITY   = .09017215
INCLINATION    = 51.5970
RA_OF_ASC_NODE = 100.2711
ARG_OF_PERICENTER = 297.7796
MEAN_ANOMALY   = 53.4474

EPHEMERIS_TYPE = 0
CLASSIFICATION_TYPE = U
NORAD_CAT_ID   = 49271
ELEMENT_SET_NO = 999
REV_AT_EPOCH   = 20607
BSTAR          = .65421055E-1
MEAN_MOTION_DOT = .34049E-3
MEAN_MOTION_DDOT = 0

CCSDS_OMM_VERS = 2.0
CREATION_DATE  = 
ORIGINATOR     = 

OBJECT_NAME    = CSS (WENTIAN)
OBJECT_ID      = 2022-085A
CENTER_NAME    = EARTH
REF_FRAME      = TEME
TIME_SYSTEM    = UTC
MEAN_ELEMENT_THEORY = SGP/SGP4

EPOCH          = 2026-01-17T18:13:12.934272
MEAN_MOTION    = 15.60612084
ECCENTRICITY   = .00111739
INCLINATION    = 41.4657
RA_OF_ASC_NODE = 157.7848
ARG_OF_PERICENTER = 305.0077
MEAN_ANOMALY   = 54.9713

EPHEMERIS_TYPE = 0
CLASSIFICATION_TYPE = U
NORAD_CAT_ID   = 53239
ELEMENT_SET_NO = 999
REV_AT_EPOCH   = 17384
BSTAR          = .23895988E-3
MEAN_MOTION_DOT = .20114E-3
MEAN_MOTION_DDOT = 0

CCSDS_OMM_VERS = 2.0
CREATION_DATE  = 
ORIGINATOR     = 

OBJECT_NAME    = CSS (MENGTIAN)
OBJECT_ID      = 2022-143A
CENTER_NAME    = EARTH
REF_FRAME      = TEME
TIME_SYSTEM    = UTC
MEAN_ELEMENT_THEORY = SGP/SGP4

EPOCH          = 2026-01-17T18:13:12.934272
MEAN_MOTION    = 15.60612084
ECCENTRICITY   = .00111739
INCLINATION    = 41.4657
RA_OF_ASC_NODE = 157.7848
ARG_OF_PERICENTER = 305.0077
MEAN_ANOMALY   = 54.9713

EPHEMERIS_TYPE = 0
CLASSIFICATION_TYPE = U
NORAD_CAT_ID   = 54216
ELEMENT_SET_NO = 999
REV_AT_EPOCH   = 15864
BSTAR          = .23895988E-3
MEAN_MOTION_DOT = .20114E-3
MEAN_MOTION_DDOT = 0

CCSDS_OMM_VERS = 2.0
CREATION_DATE  = 
ORIGINATOR     = 

OBJECT_NAME    = SHENZHOU-20 (SZ-20)
OBJECT_ID      = 2025-082A
CENTER_NAME    = EARTH
REF_FRAME      = TEME
TIME_SYSTEM    = UTC
MEAN_ELEMENT_THEORY = SGP/SGP4

EPOCH          = 2026-01-17T18:13:12.934272
MEAN_MOTION    = 15.60612084
ECCENTRICITY   = .00111739
INCLINATION    = 41.4657
RA_OF_ASC_NODE = 157.7848
ARG_OF_PERICENTER = 305.0077
MEAN_ANOMALY   = 54.9713

EPHEMERIS_TYPE = 0
CLASSIFICATION_TYPE = U
NORAD_CAT_ID   = 63632
ELEMENT_SET_NO = 999
REV_AT_EPOCH   = 25530
BSTAR          = .23895988E-3
MEAN_MOTION_DOT = .20114E-3
MEAN_MOTION_DDOT = 0

CCSDS_OMM_VERS = 2.0
CREATION_DATE  = 
ORIGINATOR     = 

OBJECT_NAME    = PROGRESS-MS 31
OBJECT_ID      = 2025-146A
CENTER_NAME    = EARTH
REF_FRAME      = TEME
TIME_SYSTEM    = UTC
MEAN_ELEMENT_THEORY = SGP/SGP4

EPOCH          = 2026-01-17T20:28:31.536192
MEAN_MOTION    = 15.49362465
ECCENTRICITY   = .00078027
INCLINATION    = 51.6334
RA_OF_ASC_NODE = 323.6922
ARG_OF_PERICENTER = 29.9146
MEAN_ANOMALY   = 330.2287

EPHEMERIS_TYPE = 0
CLASSIFICATION_TYPE = U
NORAD_CAT_ID   = 64751
ELEMENT_SET_NO = 999
REV_AT_EPOCH   = 675
BSTAR          = .24461794E-3
MEAN_MOTION_DOT = .13231E-3
MEAN_MOTION_DDOT = 0

CCSDS_OMM_VERS = 2.0
CREATION_DATE  = 
ORIGINATOR     = 

OBJECT_NAME    = TIANZHOU-9
OBJECT_ID      = 2025-149A
CENTER_NAME    = EARTH
REF_FRAME      = TEME
TIME_SYSTEM    = UTC
MEAN_ELEMENT_THEORY = SGP/SGP4

EPOCH          = 2026-01-17T18:13:12.934272
MEAN_MOTION    = 15.60612084
ECCENTRICITY   = .00111739
INCLINATION    = 41.4657
RA_OF_ASC_NODE = 157.7848
ARG_OF_PERICENTER = 305.0077
MEAN_ANOMALY   = 54.9713

EPHEMERIS_TYPE = 0
CLASSIFICATION_TYPE = U
NORAD_CAT_ID   = 64786
ELEMENT_SET_NO = 999
REV_AT_EPOCH   = 25530
BSTAR          = .23895988E-3
MEAN_MOTION_DOT = .20114E-3
MEAN_MOTION_DDOT = 0

CCSDS_OMM_VERS = 2.0
CREATION_DATE  = 
ORIGINATOR     = 

OBJECT_NAME    = DRAGON CRS-33
OBJECT_ID      = 2025-186A
CENTER_NAME    = EARTH
REF_FRAME      = TEME
TIME_SYSTEM    = UTC
MEAN_ELEMENT_THEORY = SGP/SGP4

EPOCH          = 2026-01-17T20:28:31.536192
MEAN_MOTION    = 15.49362465
ECCENTRICITY   = .00078027
INCLINATION    = 51.6334
RA_OF_ASC_NODE = 323.6922
ARG_OF_PERICENTER = 29.9146
MEAN_ANOMALY   = 330.2287

EPHEMERIS_TYPE = 0
CLASSIFICATION_TYPE = U
NORAD_CAT_ID   = 65304
ELEMENT_SET_NO = 999
REV_AT_EPOCH   = 11
BSTAR          = .24461794E-3
MEAN_MOTION_DOT = .13231E-3
MEAN_MOTION_DDOT = 0

CCSDS_OMM_VERS = 2.0
CREATION_DATE  = 
ORIGINATOR     = 

OBJECT_NAME    = PROGRESS-MS 32
OBJECT_ID      = 2025-204A
CENTER_NAME    = EARTH
REF_FRAME      = TEME
TIME_SYSTEM    = UTC
MEAN_ELEMENT_THEORY = SGP/SGP4

EPOCH          = 2026-01-17T20:28:31.536192
MEAN_MOTION    = 15.49362465
ECCENTRICITY   = .00078027
INCLINATION    = 51.6334
RA_OF_ASC_NODE = 323.6922
ARG_OF_PERICENTER = 29.9146
MEAN_ANOMALY   = 330.2287

EPHEMERIS_TYPE = 0
CLASSIFICATION_TYPE = U
NORAD_CAT_ID   = 65586
ELEMENT_SET_NO = 999
REV_AT_EPOCH   = 27
BSTAR          = .24461794E-3
MEAN_MOTION_DOT = .13231E-3
MEAN_MOTION_DDOT = 0

CCSDS_OMM_VERS = 2.0
CREATION_DATE  = 
ORIGINATOR     = 

OBJECT_NAME    = CYGNUS NG-23
OBJECT_ID      = 2025-208A
CENTER_NAME    = EARTH
REF_FRAME      = TEME
TIME_SYSTEM    = UTC
MEAN_ELEMENT_THEORY = SGP/SGP4

EPOCH          = 2026-01-17T20:28:31.536192
MEAN_MOTION    = 15.49362465
ECCENTRICITY   = .00078027
INCLINATION    = 51.6334
RA_OF_ASC_NODE = 323.6922
ARG_OF_PERICENTER = 29.9146
MEAN_ANOMALY   = 330.2287

EPHEMERIS_TYPE = 0
CLASSIFICATION_TYPE = U
NORAD_CAT_ID   = 65616
ELEMENT_SET_NO = 999
REV_AT_EPOCH   = 22
BSTAR          = .24461794E-3
MEAN_MOTION_DOT = .13231E-3
MEAN_MOTION_DDOT = 0

