ISS (ZARYA)             
1 25544U 98067A   26017.85314278  .00013231  00000+0  24462-3 0  9994
2 25544  51.6334 323.6922 0007802  29.9146 330.2287 15.49362465548455
CSS (TIANHE)            
1 48274U 21035A   26017.75917748  .00020114  00000+0  23896-3 0  9998
2 48274  41.4657 157.7848 0011173 305.0077  54.9713 15.60612084269659
ISS (NAUKA)             
1 49044U 21066A   26017.85314278  .00013231  00000+0  24462-3 0  9990
2 49044  51.6334 323.6922 0007802  29.9146 330.2287 15.49362465230443
FREGAT DEB              
1 49271U 11037PF  26015.24184448  .00034049  00000+0  65421-1 0  9992
2 49271  51.5970 100.2711 0901721 297.7796  53.4474 12.35792458206079
CSS (WENTIAN)           
1 53239U 22085A   26017.75917748  .00020114  00000+0  23896-3 0  9991
2 53239  41.4657 157.7848 0011173 305.0077  54.9713 15.60612084173841
CSS (MENGTIAN)          
1 54216U 22143A   26017.75917748  .00020114  00000+0  23896-3 0  9992
2 54216  41.4657 157.7848 0011173 305.0077  54.9713 15.60612084158648
SHENZHOU-20 (SZ-20)     
1 63632U 25082A   26017.75917748  .00020114  00000+0  23896-3 0  9999
2 63632  41.4657 157.7848 0011173 305.0077  54.9713 15.60612084255301
PROGRESS-MS 31          
1 64751U 25146A   26017.85314278  .00013231  00000+0  24462-3 0  9995
2 64751  51.6334 323.6922 0007802  29.9146 330.2287 15.49362465  6750
TIANZHOU-9              
1 64786U 25149A   26017.75917748  .00020114  00000+0  23896-3 0  9994
2 64786  41.4657 157.7848 0011173 305.0077  54.9713 15.60612084255302
DRAGON CRS-33           
1 65304U 25186A   26017.85314278  .00013231  00000+0  24462-3 0  9994
2 65304  51.6334 323.6922 0007802  29.9146 330.2287 15.49362465   119
PROGRESS-MS 32          
1 65586U 25204A   26017.85314278  .00013231  00000+0  24462-3 0  9997
2 65586  51.6334 323.6922 0007802  29.9146 330.2287 15.49362465   278
CYGNUS NG-23            
1 65616U 25208A   26017.85314278  .00013231  00000+0  24462-3 0  9995
2 65616  51.6334 323.6922 0007802  29.9146 330.2287 15.49362465   227
